start=new Date('2023-02-26T00:00:00.000Z').valueOf();
sats=[{"REV_AT_EPOCH":"11292","INCLINATION":"53.0555","PERIOD":"95.589","MEAN_ANOMALY":"266.7188","MEAN_MOTION":"15.06445477","MEAN_MOTION_DOT":"0.00028558","ELEMENT_SET_NO":"999","SEMIMAJOR_AXIS":"6925.209","NORAD_CAT_ID":"47640","DECAY_DATE":null,"TIME_SYSTEM":"UTC","MEAN_ELEMENT_THEORY":"SGP4","APOAPSIS":"547.873","OBJECT_NAME":"STARLINK-2018","SITE":"AFETR","MEAN_MOTION_DDOT":"0.0000000000000","ARG_OF_PERICENTER":"93.3933","EPHEMERIS_TYPE":"0","ECCENTRICITY":"0.00011530","BSTAR":"0.00192600000000","OBJECT_TYPE":"PAYLOAD","RA_OF_ASC_NODE":"7.4909","FILE":"3837605","CLASSIFICATION_TYPE":"U","TLE_LINE1":"1 47640U 21012W   23056.27435280  .00028558  00000-0  19260-2 0  9992","COUNTRY_CODE":"US","EPOCH":"2023-02-25T06:35:04.081920","TLE_LINE2":"2 47640  53.0555   7.4909 0001153  93.3933 266.7188 15.06445477112921","REF_FRAME":"TEME","PERIAPSIS":"546.276","CENTER_NAME":"EARTH","OBJECT_ID":"2021-012W","RCS_SIZE":"LARGE","LAUNCH_DATE":"2021-02-16","GP_ID":"226854916"},{"APOAPSIS":"548.046","ECCENTRICITY":"0.00012910","EPHEMERIS_TYPE":"0","RA_OF_ASC_NODE":"269.7532","OBJECT_TYPE":"PAYLOAD","BSTAR":"0.00082798000000","OBJECT_NAME":"STARLINK-2019","ARG_OF_PERICENTER":"93.7781","MEAN_MOTION_DDOT":"0.0000000000000","SITE":"AFETR","PERIOD":"95.591","MEAN_ANOMALY":"266.3355","REV_AT_EPOCH":"11432","INCLINATION":"53.0535","DECAY_DATE":null,"TIME_SYSTEM":"UTC","MEAN_ELEMENT_THEORY":"SGP4","MEAN_MOTION_DOT":"0.00012079","MEAN_MOTION":"15.06420214","NORAD_CAT_ID":"47641","SEMIMAJOR_AXIS":"6925.287","ELEMENT_SET_NO":"999","PERIAPSIS":"546.258","REF_FRAME":"TEME","TLE_LINE2":"2 47641  53.0535 269.7532 0001291  93.7781 266.3355 15.06420214114323","RCS_SIZE":"LARGE","GP_ID":"226911247","LAUNCH_DATE":"2021-02-16","CENTER_NAME":"EARTH","OBJECT_ID":"2021-012X","FILE":"3839003","CLASSIFICATION_TYPE":"U","EPOCH":"2023-02-25T21:10:12.535392","COUNTRY_CODE":"US","TLE_LINE1":"1 47641U 21012X   23056.88208953  .00012079  00000-0  82798-3 0  9993"},{"REF_FRAME":"TEME","PERIAPSIS":"546.010","TLE_LINE2":"2 47642  53.0560   2.4610 0001409  78.0598 282.0549 15.06474220112980","RCS_SIZE":"LARGE","LAUNCH_DATE":"2021-02-16","GP_ID":"226855917","CENTER_NAME":"EARTH","OBJECT_ID":"2021-012Y","FILE":"3837605","CLASSIFICATION_TYPE":"U","COUNTRY_CODE":"US","EPOCH":"2023-02-25T06:43:40.329696","TLE_LINE1":"1 47642U 21012Y   23056.28032789  .00035670  00000-0  23967-2 0  9994","APOAPSIS":"547.962","ECCENTRICITY":"0.00014090","EPHEMERIS_TYPE":"0","BSTAR":"0.00239670000000","OBJECT_TYPE":"PAYLOAD","RA_OF_ASC_NODE":"2.4610","OBJECT_NAME":"STARLINK-2020","SITE":"AFETR","MEAN_MOTION_DDOT":"0.0000000000000","ARG_OF_PERICENTER":"78.0598","PERIOD":"95.587","MEAN_ANOMALY":"282.0549","REV_AT_EPOCH":"11298","INCLINATION":"53.0560","DECAY_DATE":null,"TIME_SYSTEM":"UTC","MEAN_ELEMENT_THEORY":"SGP4","MEAN_MOTION":"15.06474220","MEAN_MOTION_DOT":"0.00035670","ELEMENT_SET_NO":"999","NORAD_CAT_ID":"47642","SEMIMAJOR_AXIS":"6925.121"},{"OBJECT_TYPE":"PAYLOAD","RA_OF_ASC_NODE":"347.6939","BSTAR":"0.00189160000000","EPHEMERIS_TYPE":"0","ECCENTRICITY":"0.00014660","ARG_OF_PERICENTER":"82.8351","MEAN_MOTION_DDOT":"0.0000000000000","SITE":"AFETR","OBJECT_NAME":"STARLINK-2022","APOAPSIS":"548.058","MEAN_ELEMENT_THEORY":"SGP4","DECAY_DATE":null,"TIME_SYSTEM":"UTC","SEMIMAJOR_AXIS":"6925.178","NORAD_CAT_ID":"47643","ELEMENT_SET_NO":"999","MEAN_MOTION_DOT":"0.00028049","MEAN_MOTION":"15.06455764","MEAN_ANOMALY":"277.2805","PERIOD":"95.589","INCLINATION":"53.0548","REV_AT_EPOCH":"11319","GP_ID":"226856155","LAUNCH_DATE":"2021-02-16","RCS_SIZE":"LARGE","OBJECT_ID":"2021-012Z","CENTER_NAME":"EARTH","PERIAPSIS":"546.027","REF_FRAME":"TEME","TLE_LINE2":"2 47643  53.0548 347.6939 0001466  82.8351 277.2805 15.06455764113195","EPOCH":"2023-02-25T05:28:43.001472","COUNTRY_CODE":"US","TLE_LINE1":"1 47643U 21012Z   23056.22827548  .00028049  00000-0  18916-2 0  9994","CLASSIFICATION_TYPE":"U","FILE":"3837605"},{"EPHEMERIS_TYPE":"0","ECCENTRICITY":"0.00015920","RA_OF_ASC_NODE":"7.6401","OBJECT_TYPE":"PAYLOAD","BSTAR":"0.00180460000000","OBJECT_NAME":"STARLINK-2026","ARG_OF_PERICENTER":"102.5489","SITE":"AFETR","MEAN_MOTION_DDOT":"0.0000000000000","APOAPSIS":"548.184","DECAY_DATE":null,"TIME_SYSTEM":"UTC","MEAN_ELEMENT_THEORY":"SGP4","MEAN_MOTION_DOT":"0.00026732","MEAN_MOTION":"15.06443233","SEMIMAJOR_AXIS":"6925.216","NORAD_CAT_ID":"47644","ELEMENT_SET_NO":"999","PERIOD":"95.589","MEAN_ANOMALY":"257.5678","REV_AT_EPOCH":"11292","INCLINATION":"53.0549","RCS_SIZE":"LARGE","GP_ID":"226855417","LAUNCH_DATE":"2021-02-16","CENTER_NAME":"EARTH","OBJECT_ID":"2021-012AA","PERIAPSIS":"545.979","REF_FRAME":"TEME","TLE_LINE2":"2 47644  53.0549   7.6401 0001592 102.5489 257.5678 15.06443233112923","EPOCH":"2023-02-25T05:47:18.426336","COUNTRY_CODE":"US","TLE_LINE1":"1 47644U 21012AA  23056.24118549  .00026732  00000-0  18046-2 0  9992","FILE":"3837605","CLASSIFICATION_TYPE":"U"},{"RCS_SIZE":"LARGE","LAUNCH_DATE":"2021-02-16","GP_ID":"226863482","CENTER_NAME":"EARTH","OBJECT_ID":"2021-012AB","REF_FRAME":"TEME","PERIAPSIS":"546.279","TLE_LINE2":"2 47645  53.0543 338.6844 0001177  84.7294 275.3830 15.06439024112785","COUNTRY_CODE":"US","EPOCH":"2023-02-25T01:31:14.609856","TLE_LINE1":"1 47645U 21012AB  23056.06336354  .00020784  00000-0  14086-2 0  9990","FILE":"3837754","CLASSIFICATION_TYPE":"U","ECCENTRICITY":"0.00011770","EPHEMERIS_TYPE":"0","BSTAR":"0.00140860000000","OBJECT_TYPE":"PAYLOAD","RA_OF_ASC_NODE":"338.6844","OBJECT_NAME":"STARLINK-2027","MEAN_MOTION_DDOT":"0.0000000000000","SITE":"AFETR","ARG_OF_PERICENTER":"84.7294","APOAPSIS":"547.909","DECAY_DATE":null,"TIME_SYSTEM":"UTC","MEAN_ELEMENT_THEORY":"SGP4","MEAN_MOTION":"15.06439024","MEAN_MOTION_DOT":"0.00020784","ELEMENT_SET_NO":"999","NORAD_CAT_ID":"47645","SEMIMAJOR_AXIS":"6925.229","PERIOD":"95.590","MEAN_ANOMALY":"275.3830","REV_AT_EPOCH":"11278","INCLINATION":"53.0543"},{"APOAPSIS":"548.118","OBJECT_TYPE":"PAYLOAD","RA_OF_ASC_NODE":"300.1648","BSTAR":"-0.00047309000000","ECCENTRICITY":"0.00012840","EPHEMERIS_TYPE":"0","ARG_OF_PERICENTER":"42.2978","SITE":"AFETR","MEAN_MOTION_DDOT":"0.0000000000000","OBJECT_NAME":"STARLINK-2028","MEAN_ANOMALY":"317.8110","PERIOD":"95.592","INCLINATION":"53.0542","REV_AT_EPOCH":"11389","MEAN_ELEMENT_THEORY":"SGP4","TIME_SYSTEM":"UTC","DECAY_DATE":null,"SEMIMAJOR_AXIS":"6925.364","NORAD_CAT_ID":"47646","ELEMENT_SET_NO":"999","MEAN_MOTION_DOT":"-0.00007320","MEAN_MOTION":"15.06395031","PERIAPSIS":"546.340","REF_FRAME":"TEME","TLE_LINE2":"2 47646  53.0542 300.1648 0001284  42.2978 317.8110 15.06395031113893","GP_ID":"226911998","LAUNCH_DATE":"2021-02-16","RCS_SIZE":"LARGE","OBJECT_ID":"2021-012AC","CENTER_NAME":"EARTH","CLASSIFICATION_TYPE":"U","FILE":"3839003","EPOCH":"2023-02-25T20:18:28.497024","COUNTRY_CODE":"US","TLE_LINE1":"1 47646U 21012AC  23056.84616316 -.00007320  00000-0 -47309-3 0  9994"},{"REV_AT_EPOCH":"11292","INCLINATION":"53.0539","PERIOD":"95.592","MEAN_ANOMALY":"251.7575","MEAN_MOTION_DOT":"0.00007609","MEAN_MOTION":"15.06402527","NORAD_CAT_ID":"47647","SEMIMAJOR_AXIS":"6925.341","ELEMENT_SET_NO":"999","DECAY_DATE":null,"TIME_SYSTEM":"UTC","MEAN_ELEMENT_THEORY":"SGP4","APOAPSIS":"547.793","OBJECT_NAME":"STARLINK-2030","ARG_OF_PERICENTER":"108.3506","MEAN_MOTION_DDOT":"0.0000000000000","SITE":"AFETR","EPHEMERIS_TYPE":"0","ECCENTRICITY":"0.00008480","OBJECT_TYPE":"PAYLOAD","RA_OF_ASC_NODE":"7.5848","BSTAR":"0.00052908000000","CLASSIFICATION_TYPE":"U","FILE":"3837605","TLE_LINE1":"1 47647U 21012AD  23056.25224676  .00007609  00000-0  52908-3 0  9993","EPOCH":"2023-02-25T06:03:14.120064","COUNTRY_CODE":"US","TLE_LINE2":"2 47647  53.0539   7.5848 0000848 108.3506 251.7575 15.06402527112929","PERIAPSIS":"546.619","REF_FRAME":"TEME","CENTER_NAME":"EARTH","OBJECT_ID":"2021-012AD","RCS_SIZE":"LARGE","GP_ID":"226856656","LAUNCH_DATE":"2021-02-16"},{"SITE":"AFETR","MEAN_MOTION_DDOT":"0.0000000000000","ARG_OF_PERICENTER":"97.5804","OBJECT_NAME":"STARLINK-2031","BSTAR":"0.00174530000000","OBJECT_TYPE":"PAYLOAD","RA_OF_ASC_NODE":"347.9243","ECCENTRICITY":"0.00012420","EPHEMERIS_TYPE":"0","APOAPSIS":"547.961","ELEMENT_SET_NO":"999","NORAD_CAT_ID":"47648","SEMIMAJOR_AXIS":"6925.235","MEAN_MOTION":"15.06436894","MEAN_MOTION_DOT":"0.00025836","MEAN_ELEMENT_THEORY":"SGP4","DECAY_DATE":null,"TIME_SYSTEM":"UTC","INCLINATION":"53.0542","REV_AT_EPOCH":"11267","MEAN_ANOMALY":"262.5326","PERIOD":"95.590","OBJECT_ID":"2021-012AE","CENTER_NAME":"EARTH","LAUNCH_DATE":"2021-02-16","GP_ID":"226791204","RCS_SIZE":"MEDIUM","TLE_LINE2":"2 47648  53.0542 347.9243 0001242  97.5804 262.5326 15.06436894112673","REF_FRAME":"TEME","PERIAPSIS":"546.240","TLE_LINE1":"1 47648U 21012AE  23056.17667981  .00025836  00000-0  17453-2 0  9992","COUNTRY_CODE":"US","EPOCH":"2023-02-25T04:14:25.135584","FILE":"3835487","CLASSIFICATION_TYPE":"U"},{"TLE_LINE1":"1 47649U 21012AF  23056.18036070  .00026795  00000-0  18090-2 0  9996","COUNTRY_CODE":"US","EPOCH":"2023-02-25T04:19:43.164480","CLASSIFICATION_TYPE":"U","FILE":"3837605","CENTER_NAME":"EARTH","OBJECT_ID":"2021-012AF","RCS_SIZE":"LARGE","LAUNCH_DATE":"2021-02-16","GP_ID":"226855668","TLE_LINE2":"2 47649  53.0534 347.9174 0001314  90.3459 269.7681 15.06439077113192","REF_FRAME":"TEME","PERIAPSIS":"546.184","MEAN_MOTION":"15.06439077","MEAN_MOTION_DOT":"0.00026795","ELEMENT_SET_NO":"999","NORAD_CAT_ID":"47649","SEMIMAJOR_AXIS":"6925.229","DECAY_DATE":null,"TIME_SYSTEM":"UTC","MEAN_ELEMENT_THEORY":"SGP4","REV_AT_EPOCH":"11319","INCLINATION":"53.0534","PERIOD":"95.590","MEAN_ANOMALY":"269.7681","OBJECT_NAME":"STARLINK-2032","SITE":"AFETR","MEAN_MOTION_DDOT":"0.0000000000000","ARG_OF_PERICENTER":"90.3459","EPHEMERIS_TYPE":"0","ECCENTRICITY":"0.00013140","BSTAR":"0.00180900000000","RA_OF_ASC_NODE":"347.9174","OBJECT_TYPE":"PAYLOAD","APOAPSIS":"548.004"}];
